NORAD_CAT_ID,OBJECT_NAME,OBJECT_TYPE,EPOCH,MEAN_MOTION,ECCENTRICITY,INCLINATION,RA_OF_ASC_NODE,ARG_OF_PERICENTER,MEAN_ANOMALY,BSTAR,MEAN_MOTION_DOT,MEAN_MOTION_DDOT,TLE_LINE0,TLE_LINE1,TLE_LINE2,SEMIMAJOR_AXIS,PERIOD,APOGEE,PERIGEE,DECAYED
53392.0,STARLINK-4535,PAYLOAD,2024-07-19 11:46:57,15.08833138,0.000174,53.2169,289.5395,59.3746,300.7418,-5.2823e-05,-1.129e-05,0.0,0 STARLINK-4535,1 53392U 22097E   24201.49094900 -.00001129  00000-0 -52823-4 0  9995,2 53392  53.2169 289.5395 0001740  59.3746 300.7418 15.08833138107716,6917.901,95.438,540.97,538.563,0.0
53392.0,STARLINK-4535,PAYLOAD,2024-07-19 13:22:19,15.08847386,0.0001169,53.2167,289.244,78.3287,281.7836,0.00010108,1.322e-05,0.0,0 STARLINK-4535,1 53392U 22097E   24201.55717487  .00001322  00000-0  10108-3 0  9996,2 53392  53.2167 289.2440 0001169  78.3287 281.7836 15.08847386108373,6917.858,95.437,540.532,538.914,0.0
53392.0,STARLINK-4535,PAYLOAD,2024-07-20 05:16:11,15.0883767,0.0001223,53.2174,286.2741,91.6062,268.5071,5.2008e-05,5.4e-06,0.0,0 STARLINK-4535,1 53392U 22097E   24202.21958192  .00000540  00000-0  52008-4 0  9997,2 53392  53.2174 286.2741 0001223  91.6062 268.5071 15.08837670107820,6917.888,95.438,540.599,538.906,0.0
53392.0,STARLINK-4535,PAYLOAD,2024-07-20 13:13:07,15.08845654,0.0001403,53.217,284.7862,80.246,279.869,9.6468e-05,1.248e-05,0.0,0 STARLINK-4535,1 53392U 22097E   24202.55077714  .00001248  00000-0  96468-4 0  9990,2 53392  53.2170 284.7862 0001403  80.2460 279.8690 15.08845654108520,6917.863,95.437,540.699,538.758,0.0
53392.0,STARLINK-4535,PAYLOAD,2024-07-21 05:06:59,15.08840025,0.0001481,53.2162,281.8156,72.9811,287.1343,-3.1287e-05,-7.86e-06,0.0,0 STARLINK-4535,1 53392U 22097E   24203.21318811 -.00000786  00000-0 -31287-4 0  9996,2 53392  53.2162 281.8156 0001481  72.9811 287.1343 15.08840025107971,6917.88,95.438,540.77,538.721,0.0
53392.0,STARLINK-4535,PAYLOAD,2024-07-21 11:28:32,15.08835507,0.0001632,53.217,280.6248,73.5029,286.6142,-4.8415e-05,-1.058e-05,0.0,0 STARLINK-4535,1 53392U 22097E   24203.47815277 -.00001058  00000-0 -48415-4 0  9996,2 53392  53.2170 280.6248 0001632  73.5029 286.6142 15.08835507108662,6917.894,95.438,540.888,538.63,0.0
53392.0,STARLINK-4535,PAYLOAD,2024-07-22 09:43:55,15.08845162,0.0001394,53.2174,276.4598,86.5814,273.5338,3.7437e-05,3.08e-06,0.0,0 STARLINK-4535,1 53392U 22097E   24204.40550279  .00000308  00000-0  37437-4 0  9995,2 53392  53.2174 276.4598 0001394  86.5814 273.5338 15.08845162108152,6917.865,95.437,540.694,538.765,0.0
53392.0,STARLINK-4535,PAYLOAD,2024-07-23 11:10:05,15.08840368,0.0001662,53.2174,271.7023,79.8964,280.2216,0.0001333,1.834e-05,0.0,0 STARLINK-4535,1 53392U 22097E   24205.46534306  .00001834  00000-0  13330-3 0  9995,2 53392  53.2174 271.7023 0001662  79.8964 280.2216 15.08840368108313,6917.879,95.438,540.894,538.595,0.0
53392.0,STARLINK-4535,PAYLOAD,2024-07-24 04:39:20,15.08835478,0.000154,53.2167,268.4306,80.8537,279.263,-3.6517e-05,-8.69e-06,0.0,0 STARLINK-4535,1 53392U 22097E   24206.19399167 -.00000869  00000-0 -36517-4 0  9992,2 53392  53.2167 268.4306 0001540  80.8537 279.2630 15.08835478108421,6917.894,95.438,540.825,538.694,0.0
53392.0,STARLINK-4535,PAYLOAD,2024-07-24 09:25:30,15.08832059,0.0001444,53.2163,267.5374,78.3779,281.7376,-5.9119e-05,-1.228e-05,0.0,0 STARLINK-4535,1 53392U 22097E   24206.39271470 -.00001228  00000-0 -59119-4 0  9993,2 53392  53.2163 267.5374 0001444  78.3779 281.7376 15.08832059109108,6917.905,95.438,540.769,538.771,0.0
53392.0,STARLINK-4535,PAYLOAD,2024-07-25 04:30:07,15.08843328,0.0001346,53.2157,263.9643,81.1551,278.9594,2.2114e-06,-2.53e-06,0.0,0 STARLINK-4535,1 53392U 22097E   24207.18758591 -.00000253  00000-0  22114-5 0  9997,2 53392  53.2157 263.9643 0001346  81.1551 278.9594 15.08843328108572,6917.87,95.437,540.666,538.804,0.0
53392.0,STARLINK-4535,PAYLOAD,2024-07-25 14:02:25,15.08849254,0.0001398,53.2155,262.183,75.0312,285.0835,9.416e-05,1.211e-05,0.0,0 STARLINK-4535,1 53392U 22097E   24207.58501834  .00001211  00000-0  94160-4 0  9990,2 53392  53.2155 262.1830 0001398  75.0312 285.0835 15.08849254108631,6917.852,95.437,540.684,538.75,0.0
53392.0,STARLINK-4535,PAYLOAD,2024-07-26 09:07:04,15.08830595,0.0001462,53.2162,258.6127,80.6182,279.4976,4.5468e-05,4.36e-06,0.0,0 STARLINK-4535,1 53392U 22097E   24208.37991255  .00000436  00000-0  45468-4 0  9993,2 53392  53.2162 258.6127 0001462  80.6182 279.4976 15.08830595108751,6917.909,95.438,540.786,538.763,0.0
53392.0,STARLINK-4535,PAYLOAD,2024-07-26 20:14:45,15.0884175,0.0001428,53.2166,256.5354,82.5153,277.6001,6.4694e-05,7.42e-06,0.0,0 STARLINK-4535,1 53392U 22097E   24208.84358526  .00000742  00000-0  64694-4 0  9995,2 53392  53.2166 256.5354 0001428  82.5153 277.6001 15.08841750108827,6917.875,95.437,540.728,538.752,0.0
53392.0,STARLINK-4535,PAYLOAD,2024-07-27 20:05:32,15.08844815,0.000148,53.2165,252.0749,84.8767,275.2394,-5.7835e-05,-1.208e-05,0.0,0 STARLINK-4535,1 53392U 22097E   24209.83718646 -.00001208  00000-0 -57835-4 0  9997,2 53392  53.2165 252.0749 0001480  84.8767 275.2394 15.08844815109622,6917.866,95.437,540.755,538.707,0.0
53392.0,STARLINK-4535,PAYLOAD,2024-07-28 10:24:01,15.08838335,0.0001487,53.2158,249.3988,85.634,274.4823,-4.3647e-06,-3.57e-06,0.0,0 STARLINK-4535,1 53392U 22097E   24210.43335085 -.00000357  00000-0 -43647-5 0  9998,2 53392  53.2158 249.3988 0001487  85.6340 274.4823 15.08838335109067,6917.885,95.438,540.779,538.722,0.0
53392.0,STARLINK-4535,PAYLOAD,2024-07-29 08:39:25,15.08835349,0.0001485,53.2151,245.2354,85.3105,274.8057,3.0011e-05,1.9e-06,0.0,0 STARLINK-4535,1 53392U 22097E   24211.36071322  .00000190  00000-0  30011-4 0  9995,2 53392  53.2151 245.2354 0001485  85.3105 274.8057 15.08835349109858,6917.895,95.438,540.787,538.732,0.0
53392.0,STARLINK-4535,PAYLOAD,2024-07-29 19:47:07,15.08839809,0.0001469,53.2154,243.153,86.0277,274.0883,4.9678e-05,5.03e-06,0.0,0 STARLINK-4535,1 53392U 22097E   24211.82439029  .00000503  00000-0  49678-4 0  9995,2 53392  53.2154 243.1530 0001469  86.0277 274.0883 15.08839809109274,6917.881,95.438,540.762,538.73,0.0
53392.0,STARLINK-4535,PAYLOAD,2024-07-30 11:40:58,15.08844687,0.0001462,53.2153,240.178,87.9511,272.1649,8.9764e-05,1.141e-05,0.0,0 STARLINK-4535,1 53392U 22097E   24212.48678587  .00001141  00000-0  89764-4 0  9991,2 53392  53.2153 240.1780 0001462  87.9511 272.1649 15.08844687110025,6917.866,95.437,540.742,538.72,0.0
53392.0,STARLINK-4535,PAYLOAD,2024-07-31 08:20:59,15.08844895,0.0001482,53.2156,236.3114,88.5621,271.5541,6.5788e-05,7.59e-06,0.0,0 STARLINK-4535,1 53392U 22097E   24213.34790519  .00000759  00000-0  65788-4 0  9991,2 53392  53.2156 236.3114 0001482  88.5621 271.5541 15.08844895110156,6917.865,95.437,540.756,538.705,0.0
53392.0,STARLINK-4535,PAYLOAD,2024-08-01 05:01:00,15.08836419,0.0001538,53.2159,232.4456,89.4786,270.6382,-2.8961e-05,-7.49e-06,0.0,0 STARLINK-4535,1 53392U 22097E   24214.20903343 -.00000749  00000-0 -28961-4 0  9991,2 53392  53.2159 232.4456 0001538  89.4786 270.6382 15.08836419109636,6917.891,95.438,540.82,538.692,0.0
53392.0,STARLINK-4535,PAYLOAD,2024-08-01 08:11:46,15.08838831,0.000153,53.2159,231.8513,88.7369,271.3799,-9.3061e-06,-4.36e-06,0.0,0 STARLINK-4535,1 53392U 22097E   24214.34151138 -.00000436  00000-0 -93061-5 0  9990,2 53392  53.2159 231.8513 0001530  88.7369 271.3799 15.08838831110300,6917.884,95.438,540.807,538.691,0.0
53392.0,STARLINK-4535,PAYLOAD,2024-08-02 09:37:56,15.08838412,0.0001442,53.2154,227.0948,90.8102,269.3056,-1.1674e-05,-4.74e-06,0.0,0 STARLINK-4535,1 53392U 22097E   24215.40135333 -.00000474  00000-0 -11674-4 0  9998,2 53392  53.2154 227.0948 0001442  90.8102 269.3056 15.08838412109817,6917.885,95.438,540.748,538.753,0.0
53392.0,STARLINK-4535,PAYLOAD,2024-08-02 17:34:52,15.08834843,0.000143,53.2151,225.6069,85.5504,274.5651,2.854e-05,1.66e-06,0.0,0 STARLINK-4535,1 53392U 22097E   24215.73255525  .00000166  00000-0  28540-4 0  9996,2 53392  53.2151 225.6069 0001430  85.5504 274.5651 15.08834843110518,6917.896,95.438,540.75,538.772,0.0
53392.0,STARLINK-4535,PAYLOAD,2024-08-03 09:28:43,15.0883861,0.0001408,53.215,222.6334,89.2278,270.8876,6.6289e-05,7.67e-06,0.0,0 STARLINK-4535,1 53392U 22097E   24216.39495334  .00000767  00000-0  66289-4 0  9992,2 53392  53.2150 222.6334 0001408  89.2278 270.8876 15.08838610110618,6917.885,95.438,540.724,538.776,0.0
53392.0,STARLINK-4535,PAYLOAD,2024-08-03 17:25:39,15.08837395,0.000139,53.2149,221.1461,86.7458,273.3693,6.1811e-05,6.96e-06,0.0,0 STARLINK-4535,1 53392U 22097E   24216.72615478  .00000696  00000-0  61811-4 0  9999,2 53392  53.2149 221.1461 0001390  86.7458 273.3693 15.08837395110011,6917.888,95.438,540.715,538.792,0.0
53392.0,STARLINK-4535,PAYLOAD,2024-08-04 09:19:31,15.08838785,0.0001458,53.2153,218.173,85.4937,274.6222,5.9639e-05,6.61e-06,0.0,0 STARLINK-4535,1 53392U 22097E   24217.38855601  .00000661  00000-0  59639-4 0  9993,2 53392  53.2153 218.1730 0001458  85.4937 274.6222 15.08838785110762,6917.884,95.438,540.758,538.74,0.0
53392.0,STARLINK-4535,PAYLOAD,2024-08-04 17:16:27,15.08836166,0.0001488,53.2156,216.6868,88.5705,271.5457,4.1796e-05,3.77e-06,0.0,0 STARLINK-4535,1 53392U 22097E   24217.71975890  .00000377  00000-0  41796-4 0  9992,2 53392  53.2156 216.6868 0001488  88.5705 271.5457 15.08836166110813,6917.892,95.438,540.786,538.728,0.0
53392.0,STARLINK-4535,PAYLOAD,2024-08-05 04:24:08,15.08840144,0.0001561,53.2162,214.6051,88.1867,271.9304,4.1834e-05,3.78e-06,0.0,0 STARLINK-4535,1 53392U 22097E   24218.18343740  .00000378  00000-0  41834-4 0  9991,2 53392  53.2162 214.6051 0001561  88.1867 271.9304 15.08840144110231,6917.88,95.438,540.825,538.665,0.0
53392.0,STARLINK-4535,PAYLOAD,2024-08-05 17:07:14,15.08836618,0.0001577,53.2159,212.2249,85.4516,274.6657,3.9398e-07,-2.82e-06,0.0,0 STARLINK-4535,1 53392U 22097E   24218.71336100 -.00000282  00000-0  39398-6 0  9991,2 53392  53.2159 212.2249 0001577  85.4516 274.6657 15.08836618110960,6917.891,95.438,540.847,538.665,0.0
